OBJECT_NAME,OBJECT_ID,EPOCH,MEAN_MOTION,ECCENTRICITY,INCLINATION,RA_OF_ASC_NODE,ARG_OF_PERICENTER,MEAN_ANOMALY,EPHEMERIS_TYPE,CLASSIFICATION_TYPE,NORAD_CAT_ID,ELEMENT_SET_NO,REV_AT_EPOCH,BSTAR,MEAN_MOTION_DOT,MEAN_MOTION_DDOT
TRITON-1,2013-066M,2026-06-06T06:54:33.814368,14.81665554,.00884318,97.8249,67.3430,270.0706,89.0374,0,U,39427,999,67247,.3019138E-3,.2484E-4,0
GOMX-1,2013-066Q,2026-06-06T06:58:48.563904,14.69417131,.01300874,97.6489,358.4404,112.1739,249.3332,0,U,39430,999,66831,.30976682E-3,.2037E-4,0
CUBEBUG-2 (LO-74),2013-066AA,2026-06-05T19:25:13.636704,14.93668030,.00594347,97.8908,105.7402,65.9901,294.7524,0,U,39440,999,67529,.51354385E-3,.556E-4,0
NEE-02 KRYSAOR,2013-066AB,2026-06-06T02:28:37.316352,14.86571757,.00676713,97.8890,96.3978,105.6781,255.1914,0,U,39441,999,67455,.31498207E-3,.2852E-4,0
FUNCUBE-1 (AO-73),2013-066AE,2026-06-06T04:25:51.817728,15.09358417,.00346556,97.8278,128.4023,239.5624,120.2179,0,U,39444,999,67800,.57635785E-3,.9267E-4,0
UWE-3,2013-066AG,2026-06-05T20:27:34.730784,14.96934199,.00491704,97.8697,112.8515,359.4628,0.6532,0,U,39446,999,67588,.44472521E-3,.5174E-4,0
SMDC ONE 2.4,2013-072H,2026-06-05T11:29:30.307200,15.17952221,.01435368,120.4936,306.8856,6.5078,353.7823,0,U,39469,999,11605,.37105207E-3,.9546E-4,0
COSMOS 2488 (RODNIK-S 7),2013-076A,2026-06-06T06:01:58.677312,12.42905261,.00206983,82.4829,175.5086,117.8657,242.4523,0,U,39483,999,56453,-.2690567E-3,-.27E-6,0
COSMOS 2489 (RODNIK-S 8),2013-076B,2026-06-06T07:21:51.029568,12.42879190,.00225313,82.4866,176.8492,117.8483,242.4883,0,U,39484,999,56459,-.32459756E-3,-.35E-6,0
COSMOS 2490 (RODNIK-S 9),2013-076C,2026-06-06T06:41:20.770368,12.42877590,.00224684,82.4812,174.9389,132.8953,227.4018,0,U,39485,999,56452,-.19953305E-4,.7E-7,0
KAZEOSAT 1,2014-024A,2026-06-06T06:24:34.149888,14.42076072,.00015045,98.3203,229.9854,76.0186,284.1171,0,U,39731,999,63698,.9734227E-4,.277E-5,0
COSMOS 2496 (RODNIK-S 10),2014-028A,2026-06-06T05:40:12.700704,12.42878193,.00211907,82.4446,115.5902,101.4847,258.8614,0,U,39761,999,54615,.44355955E-3,.71E-6,0
COSMOS 2497 (RODNIK-S 11),2014-028B,2026-06-06T07:00:43.888896,12.42893731,.00217835,82.4493,117.2407,96.6338,263.7222,0,U,39762,999,54616,.28290783E-3,.49E-6,0
COSMOS 2498 (RODNIK-S 12),2014-028C,2026-06-06T06:29:33.830880,12.42979709,.00225036,82.4454,115.7460,96.3420,264.0223,0,U,39763,999,54619,.14216365E-3,.3E-6,0
HODOYOSHI-4,2014-033B,2026-06-06T06:36:50.789376,14.88103967,.0023439,97.5453,342.6247,345.8821,14.1738,0,U,40011,999,64718,.19511782E-3,.1751E-4,0
UNISAT-6,2014-033C,2026-06-05T16:52:35.679072,14.88181134,.00464541,97.7873,309.6189,106.0537,254.5803,0,U,40012,999,64445,.43462434E-3,.4032E-4,0
DEIMOS-2,2014-033D,2026-06-06T06:20:05.858016,14.93693623,.00019834,97.5834,32.1355,59.1325,301.0090,0,U,40013,999,63609,.17316917E-3,.1777E-4,0
BUGSAT-1 (TITA),2014-033E,2026-06-06T06:34:44.200416,15.15464086,.00272148,98.0420,249.1854,216.1807,143.7583,0,U,40014,999,65418,.37519881E-3,.7089E-4,0
SAUDISAT 4,2014-033G,2026-06-06T03:54:25.464672,14.79529501,.00461728,97.7572,303.6800,108.7535,251.8696,0,U,40016,999,64444,.12520796E-3,.902E-5,0
APRIZESAT 9,2014-033J,2026-06-05T20:56:27.875040,14.74199707,.00649777,97.9048,290.3486,235.9898,123.5128,0,U,40018,999,64189,.11882336E-3,.758E-5,0
BRITE-CA1 (TORONTO),2014-033L,2026-06-05T19:50:45.220128,14.72661285,.0077578,97.9727,285.9652,313.9957,45.4872,0,U,40020,999,64054,.12974E-3,.812E-5,0
